[{"OBJECT_NAME":"COSMOS 2345","OBJECT_ID":"1997-041A","EPOCH":"2026-03-04T00:40:38.555328","MEAN_MOTION":1.00310685,"ECCENTRICITY":0.01656701,"INCLINATION":14.3954,"RA_OF_ASC_NODE":358.5647,"ARG_OF_PERICENTER":297.6129,"MEAN_ANOMALY":55.6097,"EPHEMERIS_TYPE":0,"CLASSIFICATION_TYPE":"U","NORAD_CAT_ID":24894,"ELEMENT_SET_NO":999,"REV_AT_EPOCH":10459,"BSTAR":0,"MEAN_MOTION_DOT":-5.6e-7,"MEAN_MOTION_DDOT":0},{"OBJECT_NAME":"SL-12 R/B(2)","OBJECT_ID":"1997-041D","EPOCH":"2026-03-04T00:26:22.003872","MEAN_MOTION":1.00006066,"ECCENTRICITY":0.03589652,"INCLINATION":14.5047,"RA_OF_ASC_NODE":358.9299,"ARG_OF_PERICENTER":299.2414,"MEAN_ANOMALY":254.503,"EPHEMERIS_TYPE":0,"CLASSIFICATION_TYPE":"U","NORAD_CAT_ID":24897,"ELEMENT_SET_NO":999,"REV_AT_EPOCH":10430,"BSTAR":0,"MEAN_MOTION_DOT":7.0e-8,"MEAN_MOTION_DDOT":0},{"OBJECT_NAME":"SL-12 R/B(2)","OBJECT_ID":"1997-046D","EPOCH":"2026-03-03T22:29:29.537952","MEAN_MOTION":1.79818054,"ECCENTRICITY":0.4822369,"INCLINATION":12.8217,"RA_OF_ASC_NODE":126.8198,"ARG_OF_PERICENTER":352.0848,"MEAN_ANOMALY":344.1354,"EPHEMERIS_TYPE":0,"CLASSIFICATION_TYPE":"U","NORAD_CAT_ID":24919,"ELEMENT_SET_NO":999,"REV_AT_EPOCH":18724,"BSTAR":0,"MEAN_MOTION_DOT":-8.1e-7,"MEAN_MOTION_DDOT":0},{"OBJECT_NAME":"AMC-3","OBJECT_ID":"1997-050A","EPOCH":"2026-03-03T23:54:38.515968","MEAN_MOTION":1.00271818,"ECCENTRICITY":0.00034833,"INCLINATION":7.8887,"RA_OF_ASC_NODE":65.2783,"ARG_OF_PERICENTER":287.8217,"MEAN_ANOMALY":95.3034,"EPHEMERIS_TYPE":0,"CLASSIFICATION_TYPE":"U","NORAD_CAT_ID":24936,"ELEMENT_SET_NO":999,"REV_AT_EPOCH":5138,"BSTAR":0,"MEAN_MOTION_DOT":-2.71e-6,"MEAN_MOTION_DDOT":0},{"OBJECT_NAME":"ATLAS 2AS CENTAUR R/B","OBJECT_ID":"1997-050B","EPOCH":"2026-03-04T10:29:56.944032","MEAN_MOTION":2.24965304,"ECCENTRICITY":0.7277156,"INCLINATION":19.2532,"RA_OF_ASC_NODE":350.0485,"ARG_OF_PERICENTER":255.1308,"MEAN_ANOMALY":20.7122,"EPHEMERIS_TYPE":0,"CLASSIFICATION_TYPE":"U","NORAD_CAT_ID":24937,"ELEMENT_SET_NO":999,"REV_AT_EPOCH":21269,"BSTAR":0.00081246,"MEAN_MOTION_DOT":7.23e-6,"MEAN_MOTION_DDOT":0},{"OBJECT_NAME":"TITAN 3C TRANSTAGE DEB","OBJECT_ID":"1968-081G","EPOCH":"2026-03-04T15:35:01.635936","MEAN_MOTION":1.01037496,"ECCENTRICITY":0.0114795,"INCLINATION":1.71,"RA_OF_ASC_NODE":40.5847,"ARG_OF_PERICENTER":290.3362,"MEAN_ANOMALY":124.053,"EPHEMERIS_TYPE":0,"CLASSIFICATION_TYPE":"U","NORAD_CAT_ID":25000,"ELEMENT_SET_NO":999,"REV_AT_EPOCH":12426,"BSTAR":0,"MEAN_MOTION_DOT":-1.22e-6,"MEAN_MOTION_DDOT":0},{"OBJECT_NAME":"TITAN 3C TRANSTAGE DEB","OBJECT_ID":"1968-081H","EPOCH":"2026-03-04T03:07:12.654048","MEAN_MOTION":1.01694599,"ECCENTRICITY":0.00686543,"INCLINATION":1.8133,"RA_OF_ASC_NODE":50.4578,"ARG_OF_PERICENTER":349.2661,"MEAN_ANOMALY":32.2577,"EPHEMERIS_TYPE":0,"CLASSIFICATION_TYPE":"U","NORAD_CAT_ID":25001,"ELEMENT_SET_NO":999,"REV_AT_EPOCH":11725,"BSTAR":0,"MEAN_MOTION_DOT":-9.5e-7,"MEAN_MOTION_DDOT":0},{"OBJECT_NAME":"USA 134","OBJECT_ID":"1997-065A","EPOCH":"2026-03-04T09:57:38.664576","MEAN_MOTION":1.00271226,"ECCENTRICITY":0.0006985,"INCLINATION":12.6603,"RA_OF_ASC_NODE":22.4983,"ARG_OF_PERICENTER":307.0105,"MEAN_ANOMALY":229.9566,"EPHEMERIS_TYPE":0,"CLASSIFICATION_TYPE":"U","NORAD_CAT_ID":25019,"ELEMENT_SET_NO":999,"REV_AT_EPOCH":3190,"BSTAR":0,"MEAN_MOTION_DOT":-7.0e-7,"MEAN_MOTION_DDOT":0},{"OBJECT_NAME":"IABS R/B","OBJECT_ID":"1997-065C","EPOCH":"2026-03-03T22:49:46.263360","MEAN_MOTION":1.01054256,"ECCENTRICITY":0.0044793,"INCLINATION":14.1966,"RA_OF_ASC_NODE":352.9382,"ARG_OF_PERICENTER":205.7073,"MEAN_ANOMALY":347.3475,"EPHEMERIS_TYPE":0,"CLASSIFICATION_TYPE":"U","NORAD_CAT_ID":25021,"ELEMENT_SET_NO":999,"REV_AT_EPOCH":10543,"BSTAR":0,"MEAN_MOTION_DOT":2.0e-8,"MEAN_MOTION_DDOT":0},{"OBJECT_NAME":"KUPON","OBJECT_ID":"1997-070A","EPOCH":"2026-03-04T06:48:58.438080","MEAN_MOTION":1.0028786,"ECCENTRICITY":0.00058542,"INCLINATION":14.5604,"RA_OF_ASC_NODE":355.4317,"ARG_OF_PERICENTER":307.3982,"MEAN_ANOMALY":52.5527,"EPHEMERIS_TYPE":0,"CLASSIFICATION_TYPE":"U","NORAD_CAT_ID":25045,"ELEMENT_SET_NO":999,"REV_AT_EPOCH":10359,"BSTAR":0,"MEAN_MOTION_DOT":-2.66e-6,"MEAN_MOTION_DDOT":0},{"OBJECT_NAME":"SL-12 R/B(2)","OBJECT_ID":"1997-070D","EPOCH":"2026-03-04T16:51:38.624832","MEAN_MOTION":0.99640211,"ECCENTRICITY":0.001368,"INCLINATION":14.7465,"RA_OF_ASC_NODE":355.0449,"ARG_OF_PERICENTER":165.5225,"MEAN_ANOMALY":26.9086,"EPHEMERIS_TYPE":0,"CLASSIFICATION_TYPE":"U","NORAD_CAT_ID":25048,"ELEMENT_SET_NO":999,"REV_AT_EPOCH":10298,"BSTAR":0,"MEAN_MOTION_DOT":-3.58e-6,"MEAN_MOTION_DDOT":0},{"OBJECT_NAME":"INDOSTAR 1","OBJECT_ID":"1997-071B","EPOCH":"2026-03-03T12:30:39.183840","MEAN_MOTION":1.00267187,"ECCENTRICITY":0.0004918,"INCLINATION":12.8357,"RA_OF_ASC_NODE":20.8205,"ARG_OF_PERICENTER":299.1301,"MEAN_ANOMALY":59.6404,"EPHEMERIS_TYPE":0,"CLASSIFICATION_TYPE":"U","NORAD_CAT_ID":25050,"ELEMENT_SET_NO":999,"REV_AT_EPOCH":10373,"BSTAR":0,"MEAN_MOTION_DOT":1.19e-6,"MEAN_MOTION_DDOT":0},{"OBJECT_NAME":"EQUATOR S","OBJECT_ID":"1997-075B","EPOCH":"2026-03-02T11:39:40.797504","MEAN_MOTION":1.07775959,"ECCENTRICITY":0.82450001,"INCLINATION":5.3427,"RA_OF_ASC_NODE":262.8607,"ARG_OF_PERICENTER":321.8179,"MEAN_ANOMALY":1.8366,"EPHEMERIS_TYPE":0,"CLASSIFICATION_TYPE":"U","NORAD_CAT_ID":25068,"ELEMENT_SET_NO":999,"REV_AT_EPOCH":11131,"BSTAR":0.0039572841,"MEAN_MOTION_DOT":-2.01e-6,"MEAN_MOTION_DDOT":0},{"OBJECT_NAME":"SL-12 R/B(2)","OBJECT_ID":"1997-076D","EPOCH":"2026-03-04T02:33:38.638080","MEAN_MOTION":1.71946937,"ECCENTRICITY":0.43649522,"INCLINATION":13.8088,"RA_OF_ASC_NODE":22.752,"ARG_OF_PERICENTER":33.3617,"MEAN_ANOMALY":119.032,"EPHEMERIS_TYPE":0,"CLASSIFICATION_TYPE":"U","NORAD_CAT_ID":25074,"ELEMENT_SET_NO":999,"REV_AT_EPOCH":17739,"BSTAR":0,"MEAN_MOTION_DOT":-1.15e-6,"MEAN_MOTION_DDOT":0},{"OBJECT_NAME":"GALAXY 8 (G-8)","OBJECT_ID":"1997-078A","EPOCH":"2026-03-04T11:53:27.737952","MEAN_MOTION":0.99694931,"ECCENTRICITY":0.00067997,"INCLINATION":13.9804,"RA_OF_ASC_NODE":10.6699,"ARG_OF_PERICENTER":18.2543,"MEAN_ANOMALY":40.582,"EPHEMERIS_TYPE":0,"CLASSIFICATION_TYPE":"U","NORAD_CAT_ID":25086,"ELEMENT_SET_NO":999,"REV_AT_EPOCH":10290,"BSTAR":0,"MEAN_MOTION_DOT":-1.22e-6,"MEAN_MOTION_DDOT":0},{"OBJECT_NAME":"INTELSAT 804 (IS-804)","OBJECT_ID":"1997-083A","EPOCH":"2026-03-03T07:43:51.403872","MEAN_MOTION":1.00259973,"ECCENTRICITY":0.00087581,"INCLINATION":13.0446,"RA_OF_ASC_NODE":18.4142,"ARG_OF_PERICENTER":8.8875,"MEAN_ANOMALY":57.7063,"EPHEMERIS_TYPE":0,"CLASSIFICATION_TYPE":"U","NORAD_CAT_ID":25110,"ELEMENT_SET_NO":999,"REV_AT_EPOCH":10327,"BSTAR":0,"MEAN_MOTION_DOT":-7.3e-7,"MEAN_MOTION_DDOT":0},{"OBJECT_NAME":"HGS 1 (ASIASAT 3)","OBJECT_ID":"1997-086A","EPOCH":"2026-03-04T08:06:38.530080","MEAN_MOTION":1.00310037,"ECCENTRICITY":0.0048225,"INCLINATION":13.0005,"RA_OF_ASC_NODE":32.7174,"ARG_OF_PERICENTER":42.1597,"MEAN_ANOMALY":166.8346,"EPHEMERIS_TYPE":0,"CLASSIFICATION_TYPE":"U","NORAD_CAT_ID":25126,"ELEMENT_SET_NO":999,"REV_AT_EPOCH":10408,"BSTAR":0,"MEAN_MOTION_DOT":-2.83e-6,"MEAN_MOTION_DDOT":0}]
