COSMOS 2345             
1 24894U 97041A   26063.02822402 -.00000056  00000+0  00000+0 0  9995
2 24894  14.3954 358.5647 0165670 297.6129  55.6097  1.00310685104599
SL-12 R/B(2)            
1 24897U 97041D   26063.01831023  .00000007  00000+0  00000+0 0  9991
2 24897  14.5047 358.9299 0358965 299.2414 254.5030  1.00006066104301
SL-12 R/B(2)            
1 24919U 97046D   26062.93714743 -.00000081  00000+0  00000+0 0  9993
2 24919  12.8217 126.8198 4822369 352.0848 344.1354  1.79818054187246
AMC-3                   
1 24936U 97050A   26062.99627912 -.00000271  00000+0  00000+0 0  9995
2 24936   7.8887  65.2783 0003483 287.8217  95.3034  1.00271818 51387
ATLAS 2AS CENTAUR R/B   
1 24937U 97050B   26063.43746463  .00000723  00000+0  81246-3 0  9995
2 24937  19.2532 350.0485 7277156 255.1308  20.7122  2.24965304212692
TITAN 3C TRANSTAGE DEB  
1 25000U 68081G   26063.64932449 -.00000122  00000+0  00000+0 0  9992
2 25000   1.7100  40.5847 0114795 290.3362 124.0530  1.01037496124269
TITAN 3C TRANSTAGE DEB  
1 25001U 68081H   26063.13000757 -.00000095  00000+0  00000+0 0  9994
2 25001   1.8133  50.4578 0068654 349.2661  32.2577  1.01694599117251
USA 134                 
1 25019U 97065A   26063.41503084 -.00000070  00000+0  00000+0 0  9992
2 25019  12.6603  22.4983 0006985 307.0105 229.9566  1.00271226 31902
IABS R/B                
1 25021U 97065C   26062.95122990  .00000002  00000+0  00000+0 0  9990
2 25021  14.1966 352.9382 0044793 205.7073 347.3475  1.01054256105432
KUPON                   
1 25045U 97070A   26063.28400970 -.00000266  00000+0  00000+0 0  9999
2 25045  14.5604 355.4317 0005854 307.3982  52.5527  1.00287860103596
SL-12 R/B(2)            
1 25048U 97070D   26063.70253038 -.00000358  00000+0  00000+0 0  9992
2 25048  14.7465 355.0449 0013680 165.5225  26.9086  0.99640211102985
INDOSTAR 1              
1 25050U 97071B   26062.52128685  .00000119  00000+0  00000+0 0  9998
2 25050  12.8357  20.8205 0004918 299.1301  59.6404  1.00267187103738
EQUATOR S               
1 25068U 97075B   26061.48588886 -.00000201  00000+0  39573-2 0  9991
2 25068   5.3427 262.8607 8245000 321.8179   1.8366  1.07775959111316
SL-12 R/B(2)            
1 25074U 97076D   26063.10669720 -.00000115  00000+0  00000+0 0  9991
2 25074  13.8088  22.7520 4364952  33.3617 119.0320  1.71946937177392
GALAXY 8 (G-8)          
1 25086U 97078A   26063.49545993 -.00000122  00000+0  00000+0 0  9991
2 25086  13.9804  10.6699 0006799  18.2543  40.5820  0.99694931102904
INTELSAT 804 (IS-804)   
1 25110U 97083A   26062.32212273 -.00000073  00000+0  00000+0 0  9993
2 25110  13.0446  18.4142 0008758   8.8875  57.7063  1.00259973103270
HGS 1 (ASIASAT 3)       
1 25126U 97086A   26063.33794595 -.00000283  00000+0  00000+0 0  9990
2 25126  13.0005  32.7174 0048225  42.1597 166.8346  1.00310037104082
